SARSAT 7 (NOAA 15)      
1 25338U 98030A   13127.64908568  .00000182  00000-0  96462-4 0  7216
2 25338  98.7224 118.0797 0009711 241.6276 226.1201 14.25210378779060
SARSAT 8 (NOAA 16)      
1 26536U 00055A   13127.63824404  .00000222  00000-0  14384-3 0  1987
2 26536  99.0457 179.9953 0009740 245.9749 276.8309 14.12868309650841
GPS BIIR-07 [DASS]      
1 26690U 01004A   13127.46337164 -.00000032  00000-0  00000+0 0  8394
2 26690  53.1383 220.5858 0144676 239.4560 177.4375  2.00571562 89914
GOES 12                 
1 26871U 01031A   13127.42875465 -.00000298  00000-0  00000+0 0   455
2 26871   2.9668  69.7688 0003809  22.0082 228.2511  1.00274286 43249
GPS BIIR-08 [DASS]      
1 27663U 03005A   13127.36838803 -.00000093  00000-0  00000+0 0  2709
2 27663  56.4130  43.4037 0071381   3.1273  84.6578  2.00568430 75257
INSAT 3A                
1 27714U 03013A   13127.67328613 -.00000272  00000-0  10000-3 0  6698
2 27714   0.1094  79.3908 0001984 295.4933 186.6543  1.00271268 36942
GPS BIIR-11 [DASS]      
1 28190U 04009A   13126.91708951  .00000025  00000-0  00000+0 0  7215
2 28190  55.1525 105.8143 0092008  15.6272  19.7739  2.00560876 66922
GPS BIIR-12 [DASS]      
1 28361U 04023A   13127.23750744 -.00000078  00000-0  00000+0 0  5389
2 28361  54.7805 281.2667 0085713 195.3667 221.0088  2.00559045 65017
GPS BIIR-13 [DASS]      
1 28474U 04045A   13127.25613640  .00000069  00000-0  00000+0 0  4257
2 28474  53.7879 159.3955 0124552 211.4546 223.2396  2.00565243 62377
SARSAT 10 (NOAA 18)     
1 28654U 05018A   13127.61897693  .00000267  00000-0  17166-3 0  6066
2 28654  99.0964  95.2603 0013505 326.5062 140.1193 14.11807505410339
GPS BIIR-14M [DASS]     
1 28874U 05038A   13127.23788484  .00000015  00000-0  00000+0 0  6850
2 28874  55.3106 102.8220 0085179 235.2257 288.5822  2.00569295 55791
MSG-2                   
1 28912U 05049B   13126.87971287  .00000047  00000-0  00000+0 0  5347
2 28912   0.4744  30.8029 0001129 331.1772 188.8385  1.00273743 27087
GOES 13                 
1 29155U 06018A   13128.37322943 -.00000262  00000-0  10000-3 0  5413
2 29155   0.2763 262.2431 0003967 179.0799 204.7184  1.00268600 25500
SARSAT 11 (METOP-A)     
1 29499U 06044A   13127.82753852  .00000113  00000-0  71692-4 0   356
2 29499  98.7168 188.0149 0001526 167.5880 192.5335 14.21489675339846
GPS BIIR-16M [DASS]     
1 29601U 06052A   13127.25384392 -.00000094  00000-0  00000+0 0  1086
2 29601  56.3728  42.3555 0044676  11.1837 128.5052  2.00576013 47405
GPS BIIR-17M [DASS]     
1 32260U 07047A   13127.43469512 -.00000080  00000-0  00000+0 0  8165
2 32260  53.9248 278.9169 0053711   7.2943  34.3286  2.00553878 40794
GPS BIIR-18M [DASS]     
1 32384U 07062A   13127.46167398  .00000014  00000-0  00000+0 0  8525
2 32384  55.3470 103.3162 0021192 297.9541 256.7607  2.00566548 39522
SARSAT 12 (NOAA 19)     
1 33591U 09005A   13127.49248793  .00000178  00000-0  12234-3 0  7905
2 33591  98.9018  69.8832 0014169 180.3793 313.3178 14.11494997218754
GOES 14                 
1 35491U 09033A   13127.32470250 -.00000101  00000-0  00000+0 0  9446
2 35491   0.1561  84.1378 0003063 115.3511  37.2213  1.00273051 14166
GOES 15                 
1 36411U 10008A   13128.37724833  .00000078  00000-0  10000-3 0  5609
2 36411   0.1094  87.0577 0001364 332.4967 167.1977  1.00270171 11675
ELEKTRO-L 1             
1 37344U 11001A   13127.72143133 -.00000112  00000-0  00000+0 0  6083
2 37344   0.0170 255.8482 0001444 222.8410  82.8820  1.00272021  8457
GLONASS-K 1             
1 37372U 11009A   13128.40103185  .00000044  00000-0  10000-3 0  6584
2 37372  64.8600 115.4443 0007374 250.0610 292.1356  2.13108769 17075
GPS BIIF-2 [DASS]       
1 37753U 11036A   13127.02656250  .00000071  00000-0  00000+0 0  6372
2 37753  55.0189 160.6193 0018020   7.7301  22.9018  2.00560701 13232
LUCH 5A                 
1 37951U 11074B   13127.77375333 -.00000061  00000-0  00000+0 0  3463
2 37951   3.7852 259.6178 0001704 203.7329 207.9838  1.00270011  5170
MSG-3                   
1 38552U 12035B   13128.05290564 -.00000010  00000-0  00000+0 0  3265
2 38552   1.1828 245.1267 0001981 193.5788 166.7977  1.00281346  3216
SARSAT 13 (METOP-B)     
1 38771U 12049A   13127.72489866  .00000108  00000-0  69508-4 0  2002
2 38771  98.7057 188.6314 0000818 300.5523  59.5574 14.21479611 32961
GPS BIIF-3 [DASS]       
1 38833U 12053A   13126.97103855 -.00000079  00000-0  00000+0 0  1849
2 38833  54.9508 340.0936 0008648   9.3225 350.7299  2.00562874  4294
GALILEO-FM3 (GSAT0103)  
1 38857U 12055A   13127.60041114 -.00000045  00000-0  00000+0 0   872
2 38857  55.2399 233.7838 0002991 222.1738 137.8003  1.70473600  3537
GALILEO-FM4 (GSAT0104)  
1 38858U 12055B   13127.53526554 -.00000045  00000-0  00000+0 0   815
2 38858  55.2406 233.7837 0002097 220.3095 139.6717  1.70473619  3520
